QIANFAN-9               
1 60387U 24140J   26001.60774620  .00000212  00000+0  30910-3 0  9996
2 60387  88.9780 297.2832 0017097 134.5925 225.6625 13.50986487 70019
QIANFAN-10              
1 60388U 24140K   26001.61192079  .00000211  00000+0  30720-3 0  9998
2 60388  88.9790 296.6318 0016134 113.1059 247.1794 13.50986865 70145
QIANFAN-11              
1 60389U 24140L   26001.64906360  .00000194  00000+0  28097-3 0  9992
2 60389  88.9716 297.2004 0015168 133.5172 226.7243 13.50982974 69801
QIANFAN-12              
1 60390U 24140M   26001.59547757  .00000202  00000+0  29473-3 0  9998
2 60390  88.9759 297.2580 0013732 140.7694 219.4456 13.50983919 69921
QIANFAN-13              
1 60391U 24140N   26001.64073012  .00000194  00000+0  28134-3 0  9996
2 60391  88.9771 297.3556 0013486 143.1011 217.1071 13.50984446 69953
QIANFAN-14              
1 60392U 24140P   26001.59127815  .00000209  00000+0  30440-3 0  9992
2 60392  88.9750 297.2542 0017134 144.8095 215.4191 13.50983890 69955
QIANFAN-15              
1 60393U 24140Q   26001.59957352  .00000190  00000+0  27610-3 0  9994
2 60393  88.9773 297.2145 0013372 129.9868 230.2459 13.50982626 69949
QIANFAN-16              
1 60394U 24140R   26001.58727291  .00000205  00000+0  29893-3 0  9993
2 60394  88.9776 297.3365 0014981 147.7828 212.4242 13.50987880 69858
